     2.100          NAVIGATION                              RINEX VERSION / TYPE
fic2rin                                 11/06/2011 00:07:39 PGM / RUN BY / DATE
                                                            END OF HEADER
27 11 11  5 22  0  0.0  .322617124766D-03  .397903932026D-11  .000000000000D+00
     .470000000000D+02 -.265000000000D+02  .383944564261D-08  .946056248183D-02
    -.134482979774D-05  .217561222380D-01  .111088156700D-04  .515360393333D+04
     .597600000000D+06 -.268220901489D-06 -.654670791495D+00 -.325962901115D-06
     .981754139623D+00  .185343750000D+03 -.118430134023D+01 -.802176271004D-08
    -.692886004340D-10  .100000000000D+01  .166000000000D+04  .000000000000D+00
     .240000000000D+01  .630000000000D+02 -.419095158577D-08  .470000000000D+02
     .590406000000D+06  .400000000000D+01
28 11 11  5 22  0  0.0  .817086547613D-04  .329691829393D-11  .000000000000D+00
     .148000000000D+03  .193125000000D+02  .439268297288D-08  .109078788031D+01
     .944361090660D-06  .174076429103D-01  .666454434395D-05  .515370182228D+04
     .597600000000D+06 -.311061739922D-06  .478818223650D+00 -.707805156708D-07
     .976628503309D+00  .263281250000D+03 -.187506243485D+01 -.831891794490D-08
     .259296515026D-09  .100000000000D+01  .166000000000D+04  .000000000000D+00
     .240000000000D+01  .000000000000D+00 -.107102096081D-07  .148000000000D+03
     .590406000000D+06  .400000000000D+01
29 11 11  5 22  0  0.0  .254830345511D-03  .341060513165D-11  .000000000000D+00
     .770000000000D+02 -.512500000000D+02  .464805075283D-08 -.307453525229D+01
    -.280886888504D-05  .210092763882D-02  .647641718388D-05  .515369254112D+04
     .597600000000D+06  .260770320892D-07  .152211799542D+01 -.223517417908D-07
     .961977198806D+00  .252375000000D+03 -.117868800360D+01 -.811140930133D-08
    -.201794119821D-09  .100000000000D+01  .166000000000D+04  .000000000000D+00
     .240000000000D+01  .000000000000D+00 -.931322574615D-08  .770000000000D+02
     .590406000000D+06  .400000000000D+01
31 11 11  5 22  0  0.0  .165407545865D-03  .522959453519D-11  .000000000000D+00
     .360000000000D+02 -.174375000000D+02  .380980155067D-08 -.240857640349D+01
    -.858679413795D-06  .779119238723D-02  .101011246443D-04  .515377268600D+04
     .597600000000D+06  .353902578354D-07 -.599102240316D+00  .137835741043D-06
     .980542643034D+00  .197125000000D+03 -.948408114285D+00 -.762424615188D-08
    -.346443002170D-10  .100000000000D+01  .166000000000D+04  .000000000000D+00
     .240000000000D+01  .000000000000D+00 -.130385160446D-07  .360000000000D+02
     .590406000000D+06  .400000000000D+01
32 11 11  5 22  0  0.0 -.357076060027D-03 -.602540239925D-11  .000000000000D+00
     .190000000000D+02  .585312500000D+02  .498735060031D-08 -.163853370120D+01
     .302493572235D-05  .121492802864D-01  .539235770702D-05  .515353190994D+04
     .597600000000D+06 -.275671482086D-06 -.262054103829D+01 -.154599547386D-06
     .953694626238D+00  .273687500000D+03 -.695439554912D+00 -.850106838934D-08
     .191079387795D-09  .100000000000D+01  .166000000000D+04  .000000000000D+00
     .240000000000D+01  .000000000000D+00 -.279396772385D-08  .190000000000D+02
     .590406000000D+06  .400000000000D+01
10 11 11  5 21 59 44.0 -.182366929948D-04 -.102318153949D-11  .000000000000D+00
     .100000000000D+01  .682812500000D+02  .522843207090D-08  .142002279472D+01
     .367872416973D-05  .107032178203D-01  .571832060814D-05  .515364397240D+04
     .597584000000D+06 -.154599547386D-06 -.268677638204D+01  .167638063431D-06
     .947942745415D+00  .264718750000D+03  .714571553665D+00 -.862285917670D-08
     .126433837905D-09  .100000000000D+01  .166000000000D+04  .000000000000D+00
     .240000000000D+01  .000000000000D+00 -.279396772385D-08  .100000000000D+01
     .591456000000D+06  .400000000000D+01
 7 11 11  5 21 59 44.0  .357162207365D-04  .216004991671D-11  .000000000000D+00
     .200000000000D+01 -.868750000000D+01  .385623205612D-08 -.240271964315D+01
    -.551342964172D-06  .508666248061D-02  .109765678644D-04  .515363746452D+04
     .597584000000D+06 -.428408384323D-07 -.601108078016D+00 -.745058059692D-08
     .975430192000D+00  .175968750000D+03 -.303465034155D+01 -.770353516888D-08
     .764317551180D-10  .100000000000D+01  .166000000000D+04  .000000000000D+00
     .240000000000D+01  .000000000000D+00 -.111758708954D-07  .200000000000D+01
     .597186000000D+06  .400000000000D+01
 7 11 11  5 23 59 44.0  .357315875590D-04  .216004991671D-11  .000000000000D+00
     .490000000000D+02 -.165625000000D+02  .394659296287D-08 -.135301961794D+01
    -.957399606705D-06  .508749473374D-02  .101421028376D-04  .515363242722D+04
     .604784000000D+06 -.502914190292D-07 -.601163110068D+00 -.128522515297D-06
     .975430548952D+00  .193468750000D+03 -.303415046537D+01 -.770103506474D-08
    -.964325882329D-11  .100000000000D+01  .166000000000D+04  .000000000000D+00
     .240000000000D+01  .000000000000D+00 -.111758708954D-07  .490000000000D+02
     .597606000000D+06  .400000000000D+01
10 11 11  5 23 59 44.0 -.182441435754D-04 -.102318153949D-11  .000000000000D+00
     .200000000000D+01  .670937500000D+02  .507735434933D-08  .247021077186D+01
     .342354178429D-05  .107031906955D-01  .560283660889D-05  .515364427757D+04
     .604784000000D+06 -.856816768646D-07 -.268683833223D+01 -.219792127609D-06
     .947945582013D+00  .265125000000D+03  .714587730613D+00 -.828427364468D-08
     .267153985179D-09  .100000000000D+01  .166000000000D+04  .000000000000D+00
     .240000000000D+01  .000000000000D+00 -.279396772385D-08  .200000000000D+01
     .597606000000D+06  .400000000000D+01
 1 11 11  6  0  0  0.0  .764983706176D-04  .231921148952D-10  .000000000000D+00
     .380000000000D+02  .143125000000D+02  .440839791318D-08 -.197012712482D+01
     .735744833946D-06  .468394486234D-03  .107400119305D-04  .515366839218D+04
     .000000000000D+00  .186264514923D-08  .240045712038D+01 -.149011611938D-07
     .960351632032D+00  .171625000000D+03  .137898288676D+01 -.791532970525D-08
    -.117862052285D-10  .100000000000D+01  .166100000000D+04  .000000000000D+00
     .240000000000D+01  .000000000000D+00  .791624188423D-08  .380000000000D+02
     .597606000000D+06  .400000000000D+01
 2 11 11  6  0  0  0.0  .364239793271D-03  .181898940355D-11  .000000000000D+00
     .770000000000D+02  .189687500000D+02  .499306512406D-08  .173296867516D+00
     .105239450932D-05  .106053760974D-01  .110529363155D-04  .515360013580D+04
     .000000000000D+00  .150874257088D-06  .239113823566D+01  .912696123123D-07
     .938930602434D+00  .156531250000D+03 -.291760083091D+01 -.832356099544D-08
     .321441960776D-11  .100000000000D+01  .166100000000D+04  .000000000000D+00
     .240000000000D+01  .000000000000D+00 -.176951289177D-07  .770000000000D+02
     .597606000000D+06  .400000000000D+01
 3 11 11  6  0  0  0.0  .791115220636D-03  .511590769747D-11  .000000000000D+00
     .108000000000D+03 -.389687500000D+02  .551201531185D-08  .328101528871D+00
    -.204332172871D-05  .149096528767D-01  .549666583538D-05  .515368032646D+04
     .000000000000D+00 -.257045030594D-06  .123020579167D+01  .894069671631D-07
     .929407387560D+00  .259562500000D+03  .115422006967D+01 -.883429655534D-08
    -.190007914592D-09  .100000000000D+01  .166100000000D+04  .000000000000D+00
     .240000000000D+01  .000000000000D+00 -.465661287308D-08  .108000000000D+03
     .597606000000D+06  .400000000000D+01
 4 11 11  6  0  0  0.0  .282159075141D-03  .112549969344D-10  .000000000000D+00
     .104000000000D+03  .251562500000D+02  .483091551274D-08 -.293357724368D+01
     .104121863842D-05  .995225005317D-02  .115446746349D-04  .515374353218D+04
     .000000000000D+00  .931322574615D-08  .240829137877D+01 -.152736902237D-06
     .938020970213D+00  .145531250000D+03  .793055626682D+00 -.800140471919D-08
     .350014579512D-10  .100000000000D+01  .166100000000D+04  .000000000000D+00
     .240000000000D+01  .000000000000D+00 -.651925802231D-08  .104000000000D+03
     .597606000000D+06  .400000000000D+01
 5 11 11  6  0  0  0.0 -.241406261921D-03 -.500222085975D-11  .000000000000D+00
     .800000000000D+01  .704062500000D+02  .505949646262D-08  .214920508471D+01
     .375881791115D-05  .258620921522D-02  .574626028538D-05  .515378941727D+04
     .000000000000D+00 -.670552253723D-07 -.282998882055D+01  .558793544769D-07
     .953040327349D+00  .265562500000D+03  .190112704146D+00 -.840713590524D-08
     .262868092368D-09  .100000000000D+01  .166100000000D+04  .000000000000D+00
     .240000000000D+01  .000000000000D+00 -.102445483208D-07  .800000000000D+01
     .597606000000D+06  .400000000000D+01
 6 11 11  6  0  0  0.0 -.367076136172D-04  .613908923697D-11  .000000000000D+00
     .460000000000D+02 -.463125000000D+02  .525093300815D-08  .229464791300D+01
    -.246614217758D-05  .668206531554D-02  .552088022232D-05  .515370186424D+04
     .000000000000D+00  .521540641785D-07  .130521726582D+01  .447034835815D-07
     .936407784114D+00  .259062500000D+03 -.654578001527D+00 -.841320758672D-08
    -.229295265354D-09  .100000000000D+01  .166100000000D+04  .000000000000D+00
     .240000000000D+01  .000000000000D+00 -.512227416039D-08  .460000000000D+02
     .597606000000D+06  .400000000000D+01
 8 11 11  6  0  0  0.0  .270083546638D-07  .000000000000D+00  .000000000000D+00
     .510000000000D+02 -.123750000000D+02  .343228582562D-08 -.186744763464D+01
    -.836327672005D-06  .121559627587D-01  .108275562525D-04  .515374164581D+04
     .000000000000D+00 -.540167093277D-07 -.642637114107D+00 -.139698386192D-06
     .997387258188D+00  .189781250000D+03 -.300809812679D+01 -.744209570744D-08
     .166435504135D-09  .100000000000D+01  .166100000000D+04  .000000000000D+00
     .240000000000D+01  .000000000000D+00 -.419095158577D-08  .510000000000D+02
     .597606000000D+06  .400000000000D+01
